NORAD_CAT_ID,OBJECT_NAME,OBJECT_TYPE,EPOCH,MEAN_MOTION,ECCENTRICITY,INCLINATION,RA_OF_ASC_NODE,ARG_OF_PERICENTER,MEAN_ANOMALY,BSTAR,MEAN_MOTION_DOT,MEAN_MOTION_DDOT,TLE_LINE0,TLE_LINE1,TLE_LINE2,SEMIMAJOR_AXIS,PERIOD,APOGEE,PERIGEE,DECAYED
55963.0,STARLINK-5924,PAYLOAD,2024-07-13 20:13:16,14.9833668,0.0003263,70.001,346.931,270.2472,89.8313,0.00012419,1.389e-05,0.0,0 STARLINK-5924,1 55963U 23037BB  24195.84255366  .00001389  00000-0  12419-3 0  9994,2 55963  70.0010 346.9310 0003263 270.2472  89.8313 14.98336680 74025,6950.172,96.107,574.305,569.769,0.0
55963.0,STARLINK-5924,PAYLOAD,2024-07-14 12:14:37,14.98330492,0.0003221,70.0011,345.2478,271.3599,88.7191,6.1011e-05,6.35e-06,0.0,0 STARLINK-5924,1 55963U 23037BB  24196.51015768  .00000635  00000-0  61011-4 0  9995,2 55963  70.0011 345.2478 0003221 271.3599  88.7191 14.98330492 74464,6950.191,96.107,574.295,569.818,0.0
55963.0,STARLINK-5924,PAYLOAD,2024-07-14 13:50:45,14.98332389,0.000323,70.0011,345.0795,271.4145,88.6644,3.5875e-05,3.35e-06,0.0,0 STARLINK-5924,1 55963U 23037BB  24196.57691708  .00000335  00000-0  35875-4 0  9991,2 55963  70.0011 345.0795 0003230 271.4145  88.6644 14.98332389 74135,6950.186,96.107,574.295,569.806,0.0
55963.0,STARLINK-5924,PAYLOAD,2024-07-14 20:15:17,14.98338725,0.0003255,70.0013,344.4063,272.8391,87.2396,0.00013511,1.52e-05,0.0,0 STARLINK-5924,1 55963U 23037BB  24196.84395006  .00001520  00000-0  13511-3 0  9992,2 55963  70.0013 344.4063 0003255 272.8391  87.2396 14.98338725 74514,6950.166,96.106,574.293,569.769,0.0
55963.0,STARLINK-5924,PAYLOAD,2024-07-15 12:16:38,14.98329198,0.0003111,70.0018,342.7244,269.52,90.5603,4.4541e-05,4.38e-06,0.0,0 STARLINK-5924,1 55963U 23037BB  24197.51155731  .00000438  00000-0  44541-4 0  9991,2 55963  70.0018 342.7244 0003111 269.5200  90.5603 14.98329198 74617,6950.195,96.107,574.223,569.898,0.0
55963.0,STARLINK-5924,PAYLOAD,2024-07-15 13:52:46,14.98328859,0.0003118,70.0019,342.5561,269.3534,90.7267,3.8924e-05,3.71e-06,0.0,0 STARLINK-5924,1 55963U 23037BB  24197.57831764  .00000371  00000-0  38924-4 0  9998,2 55963  70.0019 342.5561 0003118 269.3534  90.7267 14.98328859 74287,6950.196,96.107,574.228,569.894,0.0
55963.0,STARLINK-5924,PAYLOAD,2024-07-15 20:17:18,14.98330751,0.0002981,70.0019,341.8829,262.339,97.743,4.8748e-05,4.89e-06,0.0,0 STARLINK-5924,1 55963U 23037BB  24197.84535539  .00000489  00000-0  48748-4 0  9994,2 55963  70.0019 341.8829 0002981 262.3390  97.7430 14.98330751 74324,6950.191,96.107,574.127,569.984,0.0
55963.0,STARLINK-5924,PAYLOAD,2024-07-16 12:18:39,14.98334454,0.0003088,70.0016,340.1996,266.3225,93.7581,2.8015e-05,2.41e-06,0.0,0 STARLINK-5924,1 55963U 23037BB  24198.51295291  .00000241  00000-0  28015-4 0  9998,2 55963  70.0016 340.1996 0003088 266.3225  93.7581 14.98334454 74763,6950.179,96.107,574.19,569.898,0.0
55963.0,STARLINK-5924,PAYLOAD,2024-07-16 13:54:47,14.98334369,0.000309,70.0017,340.0313,266.2681,93.8124,2.802e-05,2.41e-06,0.0,0 STARLINK-5924,1 55963U 23037BB  24198.57971283  .00000241  00000-0  28020-4 0  9992,2 55963  70.0017 340.0313 0003090 266.2681  93.8124 14.98334369 74437,6950.179,96.107,574.192,569.897,0.0
55963.0,STARLINK-5924,PAYLOAD,2024-07-16 18:43:10,14.98338826,0.0003024,70.0019,339.5265,265.5627,94.5186,8.1427e-05,8.79e-06,0.0,0 STARLINK-5924,1 55963U 23037BB  24198.77998812  .00000879  00000-0  81427-4 0  9998,2 55963  70.0019 339.5265 0003024 265.5627  94.5186 14.98338826 74468,6950.166,96.106,574.132,569.929,0.0
55963.0,STARLINK-5924,PAYLOAD,2024-07-17 12:20:41,14.98318969,0.0002962,70.0021,337.6747,265.7882,94.2938,-2.6538e-05,-4.09e-06,0.0,0 STARLINK-5924,1 55963U 23037BB  24199.51436550 -.00000409  00000-0 -26538-4 0  9990,2 55963  70.0021 337.6747 0002962 265.7882  94.2938 14.98318969 74918,6950.227,96.108,574.151,570.033,0.0
55963.0,STARLINK-5924,PAYLOAD,2024-07-17 13:56:49,14.98319992,0.0003129,70.0016,337.5066,265.6403,94.4399,-1.5132e-06,-1.11e-06,0.0,0 STARLINK-5924,1 55963U 23037BB  24199.58112449 -.00000111  00000-0 -15132-5 0  9994,2 55963  70.0016 337.5066 0003129 265.6403  94.4399 14.98319992 74582,6950.224,96.108,574.264,569.914,0.0
55963.0,STARLINK-5924,PAYLOAD,2024-07-17 18:45:13,14.98325095,0.0003052,70.0016,337.001,269.3963,90.6847,1.0518e-05,3.3e-07,0.0,0 STARLINK-5924,1 55963U 23037BB  24199.78140238  .00000033  00000-0  10518-4 0  9996,2 55963  70.0016 337.0010 0003052 269.3963  90.6847 14.98325095 74614,6950.208,96.107,574.194,569.952,0.0
55963.0,STARLINK-5924,PAYLOAD,2024-07-18 13:58:49,14.98329184,0.0003096,70.0016,334.9813,269.5033,90.5771,6.1509e-05,6.41e-06,0.0,0 STARLINK-5924,1 55963U 23037BB  24200.58252156  .00000641  00000-0  61509-4 0  9991,2 55963  70.0016 334.9813 0003096 269.5033  90.5771 14.98329184 74730,6950.195,96.107,574.212,569.909,0.0
55963.0,STARLINK-5924,PAYLOAD,2024-07-18 18:47:13,14.98339596,0.0003095,70.0014,334.4751,268.1942,91.8863,0.00010743,1.189e-05,0.0,0 STARLINK-5924,1 55963U 23037BB  24200.78279367  .00001189  00000-0  10743-3 0  9997,2 55963  70.0014 334.4751 0003095 268.1942  91.8863 14.98339596 75103,6950.163,96.106,574.179,569.877,0.0
55963.0,STARLINK-5924,PAYLOAD,2024-07-19 12:24:42,14.98329991,0.0002902,70.0016,332.6239,267.3291,92.7536,0.00022045,2.538e-05,0.0,0 STARLINK-5924,1 55963U 23037BB  24201.51715772  .00002538  00000-0  22045-3 0  9991,2 55963  70.0016 332.6239 0002902 267.3291  92.7536 14.98329991 75217,6950.193,96.107,574.075,570.041,0.0
55963.0,STARLINK-5924,PAYLOAD,2024-07-19 14:00:50,14.98330442,0.0002902,70.0016,332.4556,267.3109,92.7718,0.00022728,2.62e-05,0.0,0 STARLINK-5924,1 55963U 23037BB  24201.58391783  .00002620  00000-0  22728-3 0  9990,2 55963  70.0016 332.4556 0002902 267.3109  92.7718 14.98330442 74882,6950.192,96.107,574.073,570.04,0.0
55963.0,STARLINK-5924,PAYLOAD,2024-07-19 18:49:14,14.98338161,0.0002849,70.0034,331.9526,267.4184,92.6649,0.00036668,4.286e-05,0.0,0 STARLINK-5924,1 55963U 23037BB  24201.78419596  .00004286  00000-0  36668-3 0  9993,2 55963  70.0034 331.9526 0002849 267.4184  92.6649 14.98338161 74919,6950.168,96.106,574.013,570.053,0.0
55963.0,STARLINK-5924,PAYLOAD,2024-07-20 12:26:43,14.98333045,0.0002426,70.0025,330.1026,258.2886,101.8,7.3787e-05,7.88e-06,0.0,0 STARLINK-5924,1 55963U 23037BB  24202.51855919  .00000788  00000-0  73787-4 0  9995,2 55963  70.0025 330.1026 0002426 258.2886 101.8000 14.98333045 75363,6950.183,96.107,573.735,570.362,0.0
55963.0,STARLINK-5924,PAYLOAD,2024-07-20 14:02:51,14.98335975,0.0002509,70.0025,329.9343,260.9708,99.1167,1.7679e-05,1.18e-06,0.0,0 STARLINK-5924,1 55963U 23037BB  24202.58531794  .00000118  00000-0  17679-4 0  9999,2 55963  70.0025 329.9343 0002509 260.9708  99.1167 14.98335975 75037,6950.174,96.107,573.783,570.296,0.0
55963.0,STARLINK-5924,PAYLOAD,2024-07-20 18:51:15,14.98335048,0.0002722,70.0027,329.4283,265.9025,94.1823,0.0001086,1.203e-05,0.0,0 STARLINK-5924,1 55963U 23037BB  24202.78559560  .00001203  00000-0  10860-3 0  9992,2 55963  70.0027 329.4283 0002722 265.9025  94.1823 14.98335048 75069,6950.177,96.107,573.934,570.15,0.0
55963.0,STARLINK-5924,PAYLOAD,2024-07-21 12:28:44,14.98331286,0.0002829,70.0021,327.5761,267.5338,92.5498,-1.7419e-05,-3.01e-06,0.0,0 STARLINK-5924,1 55963U 23037BB  24203.51995875 -.00000301  00000-0 -17419-4 0  9995,2 55963  70.0021 327.5761 0002829 267.5338  92.5498 14.98331286 75516,6950.189,96.107,574.02,570.088,0.0
55963.0,STARLINK-5924,PAYLOAD,2024-07-21 14:04:52,14.98329166,0.0002755,70.0024,327.4077,267.2555,92.8289,1.311e-05,6.3e-07,0.0,0 STARLINK-5924,1 55963U 23037BB  24203.58671943  .00000063  00000-0  13110-4 0  9996,2 55963  70.0024 327.4077 0002755 267.2555  92.8289 14.98329166 75182,6950.195,96.107,573.975,570.146,0.0
55963.0,STARLINK-5924,PAYLOAD,2024-07-21 17:17:08,14.98330471,0.0002798,70.0025,327.0712,269.4448,90.639,2.9821e-05,2.63e-06,0.0,0 STARLINK-5924,1 55963U 23037BB  24203.72023815  .00000263  00000-0  29821-4 0  9999,2 55963  70.0025 327.0712 0002798 269.4448  90.6390 14.98330471 75200,6950.191,96.107,574.001,570.112,0.0
55963.0,STARLINK-5924,PAYLOAD,2024-07-22 09:18:28,14.98358981,0.0002924,70.0023,325.3881,264.7408,95.3417,-0.00042191,-5.127e-05,0.0,0 STARLINK-5924,1 55963U 23037BB  24204.38783220 -.00005127  00000-0 -42191-3 0  9995,2 55963  70.0023 325.3881 0002924 264.7408  95.3417 14.98358981 75647,6950.103,96.105,574.0,569.936,0.0
55963.0,STARLINK-5924,PAYLOAD,2024-07-23 09:20:29,14.983314,0.000282,70.0023,322.8631,261.115,98.969,0.00012536,1.403e-05,0.0,0 STARLINK-5924,1 55963U 23037BB  24205.38923444  .00001403  00000-0  12536-3 0  9991,2 55963  70.0023 322.8631 0002820 261.1150  98.9690 14.98331400 75797,6950.189,96.107,574.014,570.094,0.0
55963.0,STARLINK-5924,PAYLOAD,2024-07-23 14:08:54,14.98333216,0.0003117,70.0016,322.357,271.4957,88.5845,0.00010738,1.189e-05,0.0,0 STARLINK-5924,1 55963U 23037BB  24205.58951409  .00001189  00000-0  10738-3 0  9998,2 55963  70.0016 322.3570 0003117 271.4957  88.5845 14.98333216 75485,6950.183,96.107,574.214,569.882,0.0
55963.0,STARLINK-5924,PAYLOAD,2024-07-24 09:22:31,14.98328202,0.0002909,69.9984,320.331,259.6645,100.4186,1.0208e-05,2.9e-07,0.0,0 STARLINK-5924,1 55963U 23037BB  24206.39063953  .00000029  00000-0  10208-4 0  9991,2 55963  69.9984 320.3310 0002909 259.6645 100.4186 14.98328202 75948,6950.198,96.107,574.085,570.042,0.0
55963.0,STARLINK-5924,PAYLOAD,2024-07-25 09:24:31,14.98332129,0.0002792,69.9964,317.8029,253.7754,106.3098,0.00012072,1.348e-05,0.0,0 STARLINK-5924,1 55963U 23037BB  24207.39203320  .00001348  00000-0  12072-3 0  9991,2 55963  69.9964 317.8029 0002792 253.7754 106.3098 14.98332129 76097,6950.186,96.107,573.992,570.111,0.0
55963.0,STARLINK-5924,PAYLOAD,2024-07-26 09:26:32,14.98334717,0.0003342,70.0003,315.2874,269.3016,90.776,8.3746e-05,9.06e-06,0.0,0 STARLINK-5924,1 55963U 23037BB  24208.39343189  .00000906  00000-0  83746-4 0  9996,2 55963  70.0003 315.2874 0003342 269.3016  90.7760 14.98334717 76244,6950.178,96.107,574.366,569.721,0.0
